OBJECT_NAME,OBJECT_ID,EPOCH,MEAN_MOTION,ECCENTRICITY,INCLINATION,RA_OF_ASC_NODE,ARG_OF_PERICENTER,MEAN_ANOMALY,EPHEMERIS_TYPE,CLASSIFICATION_TYPE,NORAD_CAT_ID,ELEMENT_SET_NO,REV_AT_EPOCH,BSTAR,MEAN_MOTION_DOT,MEAN_MOTION_DDOT
STARLINK-2499,2021-038AA,2026-07-06T05:06:49.378464,15.31673437,.00009769,53.1574,156.4120,93.3793,266.7320,0,U,48377,999,28538,-.104676E-3,-.3609E-4,0
STARLINK-2526,2021-038AB,2026-07-06T07:00:57.460608,15.31678538,.0001373,53.1590,156.2013,92.0863,268.0296,0,U,48378,999,28539,-.1499934E-3,-.5013E-4,0
STARLINK-2612,2021-038AC,2026-07-06T07:47:29.747904,15.31668171,.00013621,53.1573,153.7805,79.3040,280.8115,0,U,48379,999,28543,-.70833105E-4,-.256E-4,0
STARLINK-2614,2021-038AD,2026-07-06T08:00:51.237504,15.31747360,.00012922,53.1579,153.6166,88.6568,271.4582,0,U,48380,999,28543,.37462611E-3,.11295E-3,0
STARLINK-2630,2021-038AE,2026-07-06T04:26:38.791680,15.31683134,.00010585,53.1586,157.0356,96.4646,263.6476,0,U,48381,999,28537,-.1424054E-3,-.4779E-4,0
STARLINK-2585,2021-038AF,2026-07-06T07:48:22.151232,15.31699680,.00009439,53.1582,155.8184,93.7725,266.3384,0,U,48382,999,28540,.37685094E-3,.11347E-3,0
STARLINK-2598,2021-038AJ,2026-07-06T08:07:35.341536,15.31677802,.00011898,53.1596,153.3874,118.4841,241.6280,0,U,48385,999,28666,-.75919216E-4,-.2718E-4,0
STARLINK-2606,2021-038AK,2026-07-06T04:25:37.344864,15.31675520,.00010664,53.1582,154.2253,101.0237,259.0884,0,U,48386,999,28540,-.21258976E-3,-.6951E-4,0
STARLINK-2594,2021-038AM,2026-07-06T04:32:18.589056,15.31675130,.00012484,53.1579,153.9898,78.6009,281.5133,0,U,48388,999,28541,-.16386743E-3,-.5442E-4,0
STARLINK-2586,2021-038AP,2026-07-06T06:09:04.146336,15.31667198,.00014035,53.1596,141.0083,100.3267,259.7893,0,U,48390,999,28682,-.14290269E-3,-.4792E-4,0
STARLINK-2607,2021-038AQ,2026-07-06T03:41:01.938624,15.31688192,.000148,53.1585,141.8394,113.6661,246.4496,0,U,48391,999,28680,.89566E-4,.2414E-4,0
STARLINK-2605,2021-038AR,2026-07-06T04:08:14.341344,15.31664513,.00010889,53.1577,141.2894,74.0311,286.0811,0,U,48392,999,28681,-.36951143E-3,-.11801E-3,0
STARLINK-2574,2021-038AU,2026-07-06T07:36:45.425088,15.31671384,.00013496,53.1588,142.9739,113.4293,246.6850,0,U,48395,999,28680,-.24489504E-3,-.795E-4,0
STARLINK-2575,2021-038AV,2026-07-06T06:56:01.225248,15.31677388,.00011346,53.1566,140.7041,106.3213,253.7913,0,U,48396,999,28683,.39078597E-4,.847E-5,0
STARLINK-2590,2021-038AW,2026-07-06T07:09:28.635840,15.31667919,.00012322,53.1577,140.7940,115.4044,244.7085,0,U,48397,999,28683,-.68461212E-4,-.2487E-4,0
STARLINK-2588,2021-038AX,2026-07-06T07:00:48.736800,15.21706460,.00041964,53.0654,156.7756,97.7903,262.3569,0,U,48398,999,28658,.17061305E-2,.39001E-3,0
STARLINK-2587,2021-038AY,2026-07-06T19:21:01.257984,15.31687089,.0001287,53.1571,138.3607,79.6582,280.4565,0,U,48399,999,28690,.21957E-3,.6452E-4,0
STARLINK-2576,2021-038AZ,2026-07-06T02:41:02.766048,15.31679194,.0001379,53.1577,141.8811,118.8295,241.2844,0,U,48400,999,28558,-.25633E-3,-.8306E-4,0
STARLINK-2571,2021-038BA,2026-07-06T06:42:12.021120,15.31669631,.00009178,53.1575,141.1401,78.9108,281.1996,0,U,48401,999,28560,-.85677968E-4,-.302E-4,0
STARLINK-2593,2021-038BD,2026-07-06T06:42:38.446560,15.31680535,.0001364,53.1579,140.9124,89.1615,270.9543,0,U,48404,999,28561,-.4736585E-5,-.512E-5,0
STARLINK-2570,2021-038BE,2026-07-06T05:28:50.146752,15.31672572,.00011543,53.1568,141.3257,94.9948,265.1185,0,U,48405,999,28559,.99145424E-4,.271E-4,0
STARLINK-2568,2021-038BF,2026-07-06T06:16:24.046752,15.31662175,.00012899,53.1587,144.1724,81.3210,278.7937,0,U,48406,999,28556,-.23275657E-3,-.7572E-4,0
STARLINK-2592,2021-038BH,2026-07-06T05:55:45.832800,15.31701979,.00010815,53.1586,141.5453,100.0720,260.0403,0,U,48408,999,28559,.38301325E-3,.11539E-3,0
STARLINK-2563,2021-038BK,2026-07-06T04:49:11.897760,15.31677847,.00010845,53.1590,105.1839,116.4272,243.6841,0,U,48410,999,28610,-.16305415E-3,-.5418E-4,0
STARLINK-2505,2021-038BL,2026-07-05T23:45:40.942080,15.31668628,.0001324,53.1582,103.4452,109.8039,250.3105,0,U,48411,999,28610,-.21594E-3,-.7053E-4,0
STARLINK-2581,2021-038BM,2026-07-06T03:48:46.224576,15.31668011,.00013966,53.1612,105.2598,103.1601,256.9557,0,U,48412,999,28609,-.32937398E-3,-.10561E-3,0
YAOGAN-30 09A,2021-039A,2026-07-06T16:41:39.687936,15.02826748,.0004564,34.9976,272.7116,223.7809,136.2537,0,U,48423,999,28248,.16868E-3,.2277E-4,0
YAOGAN-30 09B,2021-039B,2026-07-06T16:08:52.836000,15.02798428,.000442,34.9958,272.2785,347.2255,12.8341,0,U,48424,999,28247,.16599E-3,.2238E-4,0
YAOGAN-30 09C,2021-039C,2026-07-06T15:37:39.468000,15.02830685,.0002275,34.9956,272.0852,259.4262,100.6190,0,U,48425,999,28248,.16648E-3,.2246E-4,0
TIANQI-12,2021-039D,2026-07-06T17:24:13.125024,15.12301473,.0003234,34.9974,204.8874,127.3902,232.7104,0,U,48426,999,28318,.23828E-3,.4187E-4,0
