STARLINK-2499           
1 48377U 21038AA  26187.21307151 -.00003609  00000+0 -10468-3 0  9998
2 48377  53.1574 156.4120 0000976  93.3793 266.7320 15.31673437285383
STARLINK-2526           
1 48378U 21038AB  26187.29233172 -.00005013  00000+0 -14999-3 0  9992
2 48378  53.1590 156.2013 0001373  92.0863 268.0296 15.31678538285392
STARLINK-2612           
1 48379U 21038AC  26187.32464986 -.00002560  00000+0 -70833-4 0  9990
2 48379  53.1573 153.7805 0001362  79.3040 280.8115 15.31668171285437
STARLINK-2614           
1 48380U 21038AD  26187.33392636  .00011295  00000+0  37463-3 0  9999
2 48380  53.1579 153.6166 0001292  88.6568 271.4582 15.31747360285436
STARLINK-2630           
1 48381U 21038AE  26187.18517120 -.00004779  00000+0 -14241-3 0  9990
2 48381  53.1586 157.0356 0001058  96.4646 263.6476 15.31683134285374
STARLINK-2585           
1 48382U 21038AF  26187.32525638  .00011347  00000+0  37685-3 0  9994
2 48382  53.1582 155.8184 0000943  93.7725 266.3384 15.31699680285401
STARLINK-2598           
1 48385U 21038AJ  26187.33860349 -.00002718  00000+0 -75919-4 0  9996
2 48385  53.1596 153.3874 0001189 118.4841 241.6280 15.31677802286667
STARLINK-2606           
1 48386U 21038AK  26187.18446001 -.00006951  00000+0 -21259-3 0  9995
2 48386  53.1582 154.2253 0001066 101.0237 259.0884 15.31675520285404
STARLINK-2594           
1 48388U 21038AM  26187.18910404 -.00005442  00000+0 -16387-3 0  9990
2 48388  53.1579 153.9898 0001248  78.6009 281.5133 15.31675130285416
STARLINK-2586           
1 48390U 21038AP  26187.25629799 -.00004792  00000+0 -14290-3 0  9993
2 48390  53.1596 141.0083 0001403 100.3267 259.7893 15.31667198286825
STARLINK-2607           
1 48391U 21038AQ  26187.15349466  .00002414  00000+0  89566-4 0  9999
2 48391  53.1585 141.8394 0001480 113.6661 246.4496 15.31688192286804
STARLINK-2605           
1 48392U 21038AR  26187.17238821 -.00011801  00000+0 -36951-3 0  9995
2 48392  53.1577 141.2894 0001088  74.0311 286.0811 15.31664513286814
STARLINK-2574           
1 48395U 21038AU  26187.31719242 -.00007950  00000+0 -24490-3 0  9990
2 48395  53.1588 142.9739 0001349 113.4293 246.6850 15.31671384286800
STARLINK-2575           
1 48396U 21038AV  26187.28890307  .00000847  00000+0  39079-4 0  9995
2 48396  53.1566 140.7041 0001134 106.3213 253.7913 15.31677388286836
STARLINK-2590           
1 48397U 21038AW  26187.29824810 -.00002487  00000+0 -68461-4 0  9994
2 48397  53.1577 140.7940 0001232 115.4044 244.7085 15.31667919286838
STARLINK-2588           
1 48398U 21038AX  26187.29223075  .00039001  00000+0  17061-2 0  9999
2 48398  53.0654 156.7756 0004196  97.7903 262.3569 15.21706460286583
STARLINK-2587           
1 48399U 21038AY  26187.80626456  .00006452  00000+0  21957-3 0  9991
2 48399  53.1571 138.3607 0001287  79.6582 280.4565 15.31687089286903
STARLINK-2576           
1 48400U 21038AZ  26187.11183757 -.00008306  00000+0 -25633-3 0  9997
2 48400  53.1577 141.8811 0001379 118.8295 241.2844 15.31679194285583
STARLINK-2571           
1 48401U 21038BA  26187.27930580 -.00003020  00000+0 -85678-4 0  9993
2 48401  53.1575 141.1401 0000917  78.9108 281.1996 15.31669631285605
STARLINK-2593           
1 48404U 21038BD  26187.27961165 -.00000512  00000+0 -47366-5 0  9995
2 48404  53.1579 140.9124 0001364  89.1615 270.9543 15.31680535285616
STARLINK-2570           
1 48405U 21038BE  26187.22835818  .00002710  00000+0  99145-4 0  9997
2 48405  53.1568 141.3257 0001154  94.9948 265.1185 15.31672572285594
STARLINK-2568           
1 48406U 21038BF  26187.26138943 -.00007572  00000+0 -23276-3 0  9991
2 48406  53.1587 144.1724 0001289  81.3210 278.7937 15.31662175285567
STARLINK-2592           
1 48408U 21038BH  26187.24705825  .00011539  00000+0  38301-3 0  9991
2 48408  53.1586 141.5453 0001081 100.0720 260.0403 15.31701979285594
STARLINK-2563           
1 48410U 21038BK  26187.20083215 -.00005418  00000+0 -16305-3 0  9993
2 48410  53.1590 105.1839 0001084 116.4272 243.6841 15.31677847286109
STARLINK-2505           
1 48411U 21038BL  26186.99005720 -.00007053  00000+0 -21594-3 0  9997
2 48411  53.1582 103.4452 0001324 109.8039 250.3105 15.31668628286102
STARLINK-2581           
1 48412U 21038BM  26187.15886834 -.00010561  00000+0 -32937-3 0  9991
2 48412  53.1612 105.2598 0001396 103.1601 256.9557 15.31668011286096
YAOGAN-30 09A           
1 48423U 21039A   26187.69559824  .00002277  00000+0  16868-3 0  9997
2 48423  34.9976 272.7116 0004564 223.7809 136.2537 15.02826748282481
YAOGAN-30 09B           
1 48424U 21039B   26187.67283375  .00002238  00000+0  16599-3 0  9999
2 48424  34.9958 272.2785 0004420 347.2255  12.8341 15.02798428282471
YAOGAN-30 09C           
1 48425U 21039C   26187.65115125  .00002246  00000+0  16648-3 0  9999
2 48425  34.9956 272.0852 0002275 259.4262 100.6190 15.02830685282482
TIANQI-12               
1 48426U 21039D   26187.72515191  .00004187  00000+0  23828-3 0  9999
2 48426  34.9974 204.8874 0003234 127.3902 232.7104 15.12301473283189
